{
  "type": "FeatureCollection",
  "features": [
    {
      "type": "Feature",
      "properties": {
        "norad_id": 29486,
        "name": "GPS BIIRM-2 (PRN 31)",
        "group": "gps-ops",
        "lat": 29.190029840687195,
        "lon": -44.818375800626725,
        "alt_km": 20182.15945958804,
        "timestamp": "2025-12-18T04:58:34.835063+00:00",
        "meta_object_name": "GPS BIIRM-2 (PRN 31)",
        "meta_object_id": "2006-042A",
        "meta_epoch": "2025-12-16T18:24:54.505728",
        "meta_mean_motion": 2.00554045,
        "meta_eccentricity": 0.01073341,
        "meta_inclination": 54.6946,
        "meta_ra_of_asc_node": 158.5809,
        "meta_arg_of_pericenter": 52.0567,
        "meta_mean_anomaly": 130.2096,
        "meta_ephemeris_type": 0,
        "meta_classification_type": "U",
        "meta_norad_cat_id": 29486,
        "meta_element_set_no": 999,
        "meta_rev_at_epoch": 14073,
        "meta_bstar": 0,
        "meta_mean_motion_dot": 8.7e-07,
        "meta_mean_motion_ddot": 0,
        "tle_line1": "1 29486U 06042A   25350.76729752  .00000087  00000+0  00000+0 0  9994",
        "tle_line2": "2 29486  54.6946 158.5809 0107334  52.0567 130.2096  2.00554045140735"
      },
      "geometry": {
        "type": "Point",
        "coordinates": [
          -44.818375800626725,
          29.190029840687195
        ]
      }
    },
    {
      "type": "Feature",
      "properties": {
        "norad_id": 29601,
        "name": "GPS BIIRM-3 (PRN 12)",
        "group": "gps-ops",
        "lat": -17.01161471439128,
        "lon": 53.57783430535396,
        "alt_km": 20274.878271894762,
        "timestamp": "2025-12-18T04:58:34.835074+00:00",
        "meta_object_name": "GPS BIIRM-3 (PRN 12)",
        "meta_object_id": "2006-052A",
        "meta_epoch": "2025-12-16T22:25:58.603584",
        "meta_mean_motion": 2.00573965,
        "meta_eccentricity": 0.00876594,
        "meta_inclination": 54.9698,
        "meta_ra_of_asc_node": 221.2318,
        "meta_arg_of_pericenter": 87.3961,
        "meta_mean_anomaly": 273.6987,
        "meta_ephemeris_type": 0,
        "meta_classification_type": "U",
        "meta_norad_cat_id": 29601,
        "meta_element_set_no": 999,
        "meta_rev_at_epoch": 13975,
        "meta_bstar": 0,
        "meta_mean_motion_dot": 7e-07,
        "meta_mean_motion_ddot": 0,
        "tle_line1": "1 29601U 06052A   25350.93470606  .00000070  00000+0  00000+0 0  9996",
        "tle_line2": "2 29601  54.9698 221.2318 0087659  87.3961 273.6987  2.00573965139753"
      },
      "geometry": {
        "type": "Point",
        "coordinates": [
          53.57783430535396,
          -17.01161471439128
        ]
      }
    },
    {
      "type": "Feature",
      "properties": {
        "norad_id": 32260,
        "name": "GPS BIIRM-4 (PRN 15)",
        "group": "gps-ops",
        "lat": -17.590499314711433,
        "lon": 74.20556976747007,
        "alt_km": 20306.694054609346,
        "timestamp": "2025-12-18T04:58:34.835086+00:00",
        "meta_object_name": "GPS BIIRM-4 (PRN 15)",
        "meta_object_id": "2007-047A",
        "meta_epoch": "2025-12-16T05:50:40.680960",
        "meta_mean_motion": 2.00564415,
        "meta_eccentricity": 0.01640743,
        "meta_inclination": 53.9576,
        "meta_ra_of_asc_node": 87.6137,
        "meta_arg_of_pericenter": 85.2864,
        "meta_mean_anomaly": 276.5744,
        "meta_ephemeris_type": 0,
        "meta_classification_type": "U",
        "meta_norad_cat_id": 32260,
        "meta_element_set_no": 999,
        "meta_rev_at_epoch": 13314,
        "meta_bstar": 0,
        "meta_mean_motion_dot": -5.5e-07,
        "meta_mean_motion_ddot": 0,
        "tle_line1": "1 32260U 07047A   25350.24352640 -.00000055  00000+0  00000+0 0  9991",
        "tle_line2": "2 32260  53.9576  87.6137 0164074  85.2864 276.5744  2.00564415133141"
      },
      "geometry": {
        "type": "Point",
        "coordinates": [
          74.20556976747007,
          -17.590499314711433
        ]
      }
    },
    {
      "type": "Feature",
      "properties": {
        "norad_id": 32384,
        "name": "GPS BIIRM-5 (PRN 29)",
        "group": "gps-ops",
        "lat": 50.920660487523065,
        "lon": 42.55150084027295,
        "alt_km": 20123.500126094503,
        "timestamp": "2025-12-18T04:58:34.835098+00:00",
        "meta_object_name": "GPS BIIRM-5 (PRN 29)",
        "meta_object_id": "2007-062A",
        "meta_epoch": "2025-12-16T19:22:21.732672",
        "meta_mean_motion": 2.00577594,
        "meta_eccentricity": 0.0032249,
        "meta_inclination": 55.1786,
        "meta_ra_of_asc_node": 281.4828,
        "meta_arg_of_pericenter": 162.2986,
        "meta_mean_anomaly": 15.9546,
        "meta_ephemeris_type": 0,
        "meta_classification_type": "U",
        "meta_norad_cat_id": 32384,
        "meta_element_set_no": 999,
        "meta_rev_at_epoch": 13185,
        "meta_bstar": 0,
        "meta_mean_motion_dot": -6.1e-07,
        "meta_mean_motion_ddot": 0,
        "tle_line1": "1 32384U 07062A   25350.80719598 -.00000061  00000+0  00000+0 0  9993",
        "tle_line2": "2 32384  55.1786 281.4828 0032249 162.2986  15.9546  2.00577594131858"
      },
      "geometry": {
        "type": "Point",
        "coordinates": [
          42.55150084027295,
          50.920660487523065
        ]
      }
    },
    {
      "type": "Feature",
      "properties": {
        "norad_id": 32711,
        "name": "GPS BIIRM-6 (PRN 07)",
        "group": "gps-ops",
        "lat": 27.554491657720675,
        "lon": 179.0401482578965,
        "alt_km": 20640.03501293709,
        "timestamp": "2025-12-18T04:58:34.835109+00:00",
        "meta_object_name": "GPS BIIRM-6 (PRN 07)",
        "meta_object_id": "2008-012A",
        "meta_epoch": "2025-12-17T15:49:41.765088",
        "meta_mean_motion": 2.00565872,
        "meta_eccentricity": 0.02026437,
        "meta_inclination": 54.4776,
        "meta_ra_of_asc_node": 157.1765,
        "meta_arg_of_pericenter": 245.005,
        "meta_mean_anomaly": 112.8804,
        "meta_ephemeris_type": 0,
        "meta_classification_type": "U",
        "meta_norad_cat_id": 32711,
        "meta_element_set_no": 999,
        "meta_rev_at_epoch": 13011,
        "meta_bstar": 0,
        "meta_mean_motion_dot": 7.7e-07,
        "meta_mean_motion_ddot": 0,
        "tle_line1": "1 32711U 08012A   25351.65951117  .00000077  00000+0  00000+0 0  9998",
        "tle_line2": "2 32711  54.4776 157.1765 0202643 245.0050 112.8804  2.00565872130119"
      },
      "geometry": {
        "type": "Point",
        "coordinates": [
          179.0401482578965,
          27.554491657720675
        ]
      }
    },
    {
      "type": "Feature",
      "properties": {
        "norad_id": 35752,
        "name": "GPS BIIRM-8 (PRN 05)",
        "group": "gps-ops",
        "lat": 41.56105747001547,
        "lon": 71.16227007838673,
        "alt_km": 20056.214380098605,
        "timestamp": "2025-12-18T04:58:34.835120+00:00",
        "meta_object_name": "GPS BIIRM-8 (PRN 05)",
        "meta_object_id": "2009-043A",
        "meta_epoch": "2025-12-15T22:20:02.106816",
        "meta_mean_motion": 2.00565586,
        "meta_eccentricity": 0.00517182,
        "meta_inclination": 56.0932,
        "meta_ra_of_asc_node": 34.6571,
        "meta_arg_of_pericenter": 81.8462,
        "meta_mean_anomaly": 127.6063,
        "meta_ephemeris_type": 0,
        "meta_classification_type": "U",
        "meta_norad_cat_id": 35752,
        "meta_element_set_no": 999,
        "meta_rev_at_epoch": 11968,
        "meta_bstar": 0,
        "meta_mean_motion_dot": -8.6e-07,
        "meta_mean_motion_ddot": 0,
        "tle_line1": "1 35752U 09043A   25349.93057994 -.00000086  00000+0  00000+0 0  9990",
        "tle_line2": "2 35752  56.0932  34.6571 0051718  81.8462 127.6063  2.00565586119683"
      },
      "geometry": {
        "type": "Point",
        "coordinates": [
          71.16227007838673,
          41.56105747001547
        ]
      }
    },
    {
      "type": "Feature",
      "properties": {
        "norad_id": 36585,
        "name": "GPS BIIF-1  (PRN 25)",
        "group": "gps-ops",
        "lat": 5.732352002187585,
        "lon": 31.727778522153656,
        "alt_km": 20281.356424691287,
        "timestamp": "2025-12-18T04:58:34.835131+00:00",
        "meta_object_name": "GPS BIIF-1  (PRN 25)",
        "meta_object_id": "2010-022A",
        "meta_epoch": "2025-12-16T18:11:46.819392",
        "meta_mean_motion": 2.00553492,
        "meta_eccentricity": 0.01262844,
        "meta_inclination": 54.2994,
        "meta_ra_of_asc_node": 215.9118,
        "meta_arg_of_pericenter": 65.1252,
        "meta_mean_anomaly": 140.1445,
        "meta_ephemeris_type": 0,
        "meta_classification_type": "U",
        "meta_norad_cat_id": 36585,
        "meta_element_set_no": 999,
        "meta_rev_at_epoch": 11393,
        "meta_bstar": 0,
        "meta_mean_motion_dot": 7.7e-07,
        "meta_mean_motion_ddot": 0,
        "tle_line1": "1 36585U 10022A   25350.75818078  .00000077  00000+0  00000+0 0  9993",
        "tle_line2": "2 36585  54.2994 215.9118 0126284  65.1252 140.1445  2.00553492113939"
      },
      "geometry": {
        "type": "Point",
        "coordinates": [
          31.727778522153656,
          5.732352002187585
        ]
      }
    }
  ]
}